[{"OBJECT_NAME":"STARLINK-36472","OBJECT_ID":"2026-003N","EPOCH":"2026-03-09T10:41:25.221984","MEAN_MOTION":15.27581501,"ECCENTRICITY":0.00013757,"INCLINATION":42.999,"RA_OF_ASC_NODE":228.6924,"ARG_OF_PERICENTER":270.6243,"MEAN_ANOMALY":89.4451,"EPHEMERIS_TYPE":0,"CLASSIFICATION_TYPE":"U","NORAD_CAT_ID":67346,"ELEMENT_SET_NO":999,"REV_AT_EPOCH":877,"BSTAR":0.0011309447,"MEAN_MOTION_DOT":0.00030991,"MEAN_MOTION_DDOT":0},{"OBJECT_NAME":"CZ-4C R\/B","OBJECT_ID":"2024-089B","EPOCH":"2026-03-09T16:45:24.409152","MEAN_MOTION":15.30115456,"ECCENTRICITY":0.00763424,"INCLINATION":97.7122,"RA_OF_ASC_NODE":107.3872,"ARG_OF_PERICENTER":235.0262,"MEAN_ANOMALY":124.3793,"EPHEMERIS_TYPE":0,"CLASSIFICATION_TYPE":"U","NORAD_CAT_ID":59729,"ELEMENT_SET_NO":999,"REV_AT_EPOCH":10143,"BSTAR":0.00030010198,"MEAN_MOTION_DOT":9.476e-5,"MEAN_MOTION_DDOT":0}]
